EUTELSAT 139 WEST A     
1 28187U 04008A   26020.26933035 -.00000031  00000+0  00000+0 0  9992
2 28187   5.4530  73.8134 0003620 146.4355 230.8066  1.00841431 79878
EUTELSAT 174A           
1 28924U 05052A   26020.25745696  .00000021  00000+0  00000+0 0  9992
2 28924   3.8423  78.3937 0006276 223.4398  84.4761  1.00269775 50840
EUTELSAT 33F            
1 29270U 06032A   26020.15815209  .00000169  00000+0  00000+0 0  9996
2 29270   1.2783  84.0201 0003486 223.2670 262.2910  1.00275070 45824
EUTELSAT HOTBIRD 13C    
1 33459U 08065A   26020.14190591 -.00000270  00000+0  00000+0 0  9991
2 33459   2.5688  80.9989 0003086 228.2818 170.9934  1.00269196 45866
EUTELSAT 36B            
1 36101U 09065A   26020.23285920  .00000126  00000+0  00000+0 0  9999
2 36101   0.1170  69.2675 0005776 233.6110 311.0446  1.00270607 59228
EUTELSAT KA-SAT 9A      
1 37258U 10069A   26020.15338540  .00000076  00000+0  00000+0 0  9991
2 37258   0.0511 342.9632 0001982 190.3492  10.4211  1.00274174 42529
EUTELSAT 7 WEST A       
1 37816U 11051A   26020.15043872 -.00000047  00000+0  00000+0 0  9993
2 37816   0.0764 324.2611 0004158 269.0890 293.0259  1.00269267 52397
EUTELSAT 16A            
1 37836U 11057A   26020.15477207  .00000118  00000+0  00000+0 0  9992
2 37836   0.0543   4.1190 0005279 295.3459 251.7623  1.00270420  5845
